CTC1_L_00213016-03
1 64748U 26050WT  26070.40833333  .00000000  00000+0  00000-0 0  9993
2 64748  75.0000 180.0000 0000000   0.0000   0.0000 13.42494874    19
CTC1_L_00213016-04
1 64749U 24688IT  26070.40833333  .00000000  00000+0  00000-0 0  9999
2 64749  75.0000 180.0000 0000000   0.0000  90.0000 13.42494874    19
CTC1_L_00213017-01
1 64750U 23938IL  26070.40833333  .00000000  00000+0  00000-0 0  9998
2 64750  75.0000 192.0000 0000000   0.0000 192.0000 13.42494874    17
CTC1_L_00213017-02
1 64751U 23785AV  26070.40833333  .00000000  00000+0  00000-0 0  9999
2 64751  75.0000 192.0000 0000000   0.0000 282.0000 13.42494874    18
CTC1_L_00213017-03
1 64752U 22606DO  26070.40833333  .00000000  00000+0  00000-0 0  9991
2 64752  75.0000 192.0000 0000000   0.0000  12.0000 13.42494874    10
CTC1_L_00213017-04
1 64753U 22519RX  26070.40833333  .00000000  00000+0  00000-0 0  9995
2 64753  75.0000 192.0000 0000000   0.0000 102.0000 13.42494874    11
CTC1_L_00213018-01
1 64754U 23435EM  26070.40833333  .00000000  00000+0  00000-0 0  9994
2 64754  75.0000 204.0000 0000000   0.0000 204.0000 13.42494874    19
CTC1_L_00213018-02
1 64755U 23582ZI  26070.40833333  .00000000  00000+0  00000-0 0  9998
2 64755  75.0000 204.0000 0000000   0.0000 294.0000 13.42494874    19
CTC1_L_00213018-03
1 64756U 23055GJ  26070.40833333  .00000000  00000+0  00000-0 0  9994
2 64756  75.0000 204.0000 0000000   0.0000  24.0000 13.42494874    11
CTC1_L_00213018-04
1 64757U 25126IB  26070.40833333  .00000000  00000+0  00000-0 0  9996
2 64757  75.0000 204.0000 0000000   0.0000 114.0000 13.42494874    12
CTC1_L_00213019-01
1 64758U 24729EF  26070.40833333  .00000000  00000+0  00000-0 0  9995
2 64758  75.0000 216.0000 0000000   0.0000 216.0000 13.42494874    19
CTC1_L_00213019-02
1 64759U 23226VS  26070.40833333  .00000000  00000+0  00000-0 0  9997
2 64759  75.0000 216.0000 0000000   0.0000 306.0000 13.42494874    10
CTC1_L_00213019-03
1 64760U 26156NC  26070.40833333  .00000000  00000+0  00000-0 0  9994
2 64760  75.0000 216.0000 0000000   0.0000  36.0000 13.42494874    12
CTC1_L_00213019-04
1 64761U 22813NS  26070.40833333  .00000000  00000+0  00000-0 0  9991
2 64761  75.0000 216.0000 0000000   0.0000 126.0000 13.42494874    13
CTC1_L_00213020-01
1 64762U 24611JT  26070.40833333  .00000000  00000+0  00000-0 0  9990
2 64762  75.0000 228.0000 0000000   0.0000 228.0000 13.42494874    10
CTC1_L_00213020-02
1 64763U 24708LY  26070.40833333  .00000000  00000+0  00000-0 0  9998
2 64763  75.0000 228.0000 0000000   0.0000 318.0000 13.42494874    11
CTC1_L_00213020-03
1 64764U 23475RB  26070.40833333  .00000000  00000+0  00000-0 0  9999
2 64764  75.0000 228.0000 0000000   0.0000  48.0000 13.42494874    12
CTC1_L_00213020-04
1 64765U 23380EG  26070.40833333  .00000000  00000+0  00000-0 0  9995
2 64765  75.0000 228.0000 0000000   0.0000 138.0000 13.42494874    13
CTC1_L_00213021-01
1 64766U 24147KE  26070.40833333  .00000000  00000+0  00000-0 0  9998
2 64766  75.0000 240.0000 0000000   0.0000 240.0000 13.42494874    12
CTC1_L_00213021-02
1 64767U 24358XL  26070.40833333  .00000000  00000+0  00000-0 0  9993
2 64767  75.0000 240.0000 0000000   0.0000 330.0000 13.42494874    13
CTC1_L_00213021-03
1 64768U 24914FZ  26070.40833333  .00000000  00000+0  00000-0 0  9992
2 64768  75.0000 240.0000 0000000   0.0000  60.0000 13.42494874    14
CTC1_L_00213021-04
1 64769U 22689WD  26070.40833333  .00000000  00000+0  00000-0 0  9990
2 64769  75.0000 240.0000 0000000   0.0000 150.0000 13.42494874    15
CTC1_L_00213022-01
1 64770U 24479UD  26070.40833333  .00000000  00000+0  00000-0 0  9991
2 64770  75.0000 252.0000 0000000   0.0000 252.0000 13.42494874    13
CTC1_L_00213022-02
1 64771U 26125OB  26070.40833333  .00000000  00000+0  00000-0 0  9992
2 64771  75.0000 252.0000 0000000   0.0000 342.0000 13.42494874    14
CTC1_L_00213022-03
1 64772U 25052U   26070.40833333  .00000000  00000+0  00000-0 0  9991
2 64772  75.0000 252.0000 0000000   0.0000  72.0000 13.42494874    15
CTC1_L_00213022-04
1 64773U 26959OW  26070.40833333  .00000000  00000+0  00000-0 0  9999
2 64773  75.0000 252.0000 0000000   0.0000 162.0000 13.42494874    16
CTC1_L_00213023-01
1 64774U 23159NK  26070.40833333  .00000000  00000+0  00000-0 0  9999
2 64774  75.0000 264.0000 0000000   0.0000 264.0000 13.42494874    13
CTC1_L_00213023-02
1 64775U 23839SU  26070.40833333  .00000000  00000+0  00000-0 0  9995
2 64775  75.0000 264.0000 0000000   0.0000 354.0000 13.42494874    14
CTC1_L_00213023-03
1 64776U 22798DO  26070.40833333  .00000000  00000+0  00000-0 0  9999
2 64776  75.0000 264.0000 0000000   0.0000  84.0000 13.42494874    15
CTC1_L_00213023-04
1 64777U 24305UA  26070.40833333  .00000000  00000+0  00000-0 0  9996
2 64777  75.0000 264.0000 0000000   0.0000 174.0000 13.42494874    16
CTC1_L_00213024-01
1 64778U 26655FQ  26070.40833333  .00000000  00000+0  00000-0 0  9997
2 64778  75.0000 276.0000 0000000   0.0000 276.0000 13.42494874    13
CTC1_L_00213024-02
1 64779U 22184QM  26070.40833333  .00000000  00000+0  00000-0 0  9991
2 64779  75.0000 276.0000 0000000   0.0000   6.0000 13.42494874    15
CTC1_L_00213024-03
1 64780U 24198YU  26070.40833333  .00000000  00000+0  00000-0 0  9990
2 64780  75.0000 276.0000 0000000   0.0000  96.0000 13.42494874    16
CTC1_L_00213024-04
1 64781U 26904DF  26070.40833333  .00000000  00000+0  00000-0 0  9998
2 64781  75.0000 276.0000 0000000   0.0000 186.0000 13.42494874    17
CTC1_L_00213025-01
1 64782U 22941SL  26070.40833333  .00000000  00000+0  00000-0 0  9996
2 64782  75.0000 288.0000 0000000   0.0000 288.0000 13.42494874    14
CTC1_L_00213025-02
1 64783U 22323WK  26070.40833333  .00000000  00000+0  00000-0 0  9991
2 64783  75.0000 288.0000 0000000   0.0000  18.0000 13.42494874    16
CTC1_L_00213025-03
1 64784U 23184GS  26070.40833333  .00000000  00000+0  00000-0 0  9998
2 64784  75.0000 288.0000 0000000   0.0000 108.0000 13.42494874    17
CTC1_L_00213025-04
1 64785U 23374DG  26070.40833333  .00000000  00000+0  00000-0 0  9990
2 64785  75.0000 288.0000 0000000   0.0000 198.0000 13.42494874    17
CTC1_L_00213026-01
1 64786U 22517YG  26070.40833333  .00000000  00000+0  00000-0 0  9999
2 64786  75.0000 300.0000 0000000   0.0000 300.0000 13.42494874    18
CTC1_L_00213026-02
1 64787U 26212CR  26070.40833333  .00000000  00000+0  00000-0 0  9996
2 64787  75.0000 300.0000 0000000   0.0000  30.0000 13.42494874    19
CTC1_L_00213026-03
1 64788U 26193RS  26070.40833333  .00000000  00000+0  00000-0 0  9995
2 64788  75.0000 300.0000 0000000   0.0000 120.0000 13.42494874    10
CTC1_L_00213026-04
1 64789U 25545EN  26070.40833333  .00000000  00000+0  00000-0 0  9996
2 64789  75.0000 300.0000 0000000   0.0000 210.0000 13.42494874    11
CTC1_L_00213027-01
1 64790U 25658QY  26070.40833333  .00000000  00000+0  00000-0 0  9993
2 64790  75.0000 312.0000 0000000   0.0000 312.0000 13.42494874    19
CTC1_L_00213027-02
1 64791U 25178VJ  26070.40833333  .00000000  00000+0  00000-0 0  9991
2 64791  75.0000 312.0000 0000000   0.0000  42.0000 13.42494874    10
CTC1_L_00213027-03
1 64792U 23927UD  26070.40833333  .00000000  00000+0  00000-0 0  9992
2 64792  75.0000 312.0000 0000000   0.0000 132.0000 13.42494874    11
CTC1_L_00213027-04
1 64793U 25210SG  26070.40833333  .00000000  00000+0  00000-0 0  9990
2 64793  75.0000 312.0000 0000000   0.0000 222.0000 13.42494874    12
CTC1_L_00213028-01
1 64794U 26511PS  26070.40833333  .00000000  00000+0  00000-0 0  9996
2 64794  75.0000 324.0000 0000000   0.0000 324.0000 13.42494874    19
CTC1_L_00213028-02
1 64795U 26861UY  26070.40833333  .00000000  00000+0  00000-0 0  9995
2 64795  75.0000 324.0000 0000000   0.0000  54.0000 13.42494874    10
CTC1_L_00213028-03
1 64796U 25294EB  26070.40833333  .00000000  00000+0  00000-0 0  9995
2 64796  75.0000 324.0000 0000000   0.0000 144.0000 13.42494874    11
CTC1_L_00213028-04
1 64797U 25932AV  26070.40833333  .00000000  00000+0  00000-0 0  9995
2 64797  75.0000 324.0000 0000000   0.0000 234.0000 13.42494874    12
CTC1_L_00213029-01
1 64798U 25610EX  26070.40833333  .00000000  00000+0  00000-0 0  9999
2 64798  75.0000 336.0000 0000000   0.0000 336.0000 13.42494874    19
CTC1_L_00213029-02
1 64799U 26141YU  26070.40833333  .00000000  00000+0  00000-0 0  9990
2 64799  75.0000 336.0000 0000000   0.0000  66.0000 13.42494874    10
CTC1_L_00213029-03
1 64800U 26438HX  26070.40833333  .00000000  00000+0  00000-0 0  9992
2 64800  75.0000 336.0000 0000000   0.0000 156.0000 13.42494874    13
CTC1_L_00213029-04
1 64801U 22293TG  26070.40833333  .00000000  00000+0  00000-0 0  9998
2 64801  75.0000 336.0000 0000000   0.0000 246.0000 13.42494874    14
CTC1_L_00213030-01
1 64802U 24234EJ  26070.40833333  .00000000  00000+0  00000-0 0  9996
2 64802  75.0000 348.0000 0000000   0.0000 348.0000 13.42494874    11
CTC1_L_00213030-02
1 64803U 26601IZ  26070.40833333  .00000000  00000+0  00000-0 0  9997
2 64803  75.0000 348.0000 0000000   0.0000  78.0000 13.42494874    12
CTC1_L_00213030-03
1 64804U 22998TW  26070.40833333  .00000000  00000+0  00000-0 0  9993
2 64804  75.0000 348.0000 0000000   0.0000 168.0000 13.42494874    13
CTC1_L_00213030-04
1 64805U 23590ZF  26070.40833333  .00000000  00000+0  00000-0 0  9993
2 64805  75.0000 348.0000 0000000   0.0000 258.0000 13.42494874    14
